{
  "type": "FeatureCollection",
  "features": [
    {
      "type": "Feature",
      "properties": {
        "norad_id": 34554,
        "name": "COSMOS 2251 DEB",
        "group": "cosmos-2251-debris",
        "lat": -73.90571658343181,
        "lon": -159.2048334134019,
        "alt_km": 772.8983550039147,
        "timestamp": "2025-12-13T05:42:57.966740+00:00",
        "meta_object_name": "COSMOS 2251 DEB",
        "meta_object_id": "1993-036UQ",
        "meta_epoch": "2025-12-11T20:53:13.392960",
        "meta_mean_motion": 14.37935968,
        "meta_eccentricity": 0.002295,
        "meta_inclination": 74.0386,
        "meta_ra_of_asc_node": 300.592,
        "meta_arg_of_pericenter": 3.1494,
        "meta_mean_anomaly": 27.0274,
        "meta_ephemeris_type": 0,
        "meta_classification_type": "U",
        "meta_norad_cat_id": 34554,
        "meta_element_set_no": 999,
        "meta_rev_at_epoch": 87743,
        "meta_bstar": 0.00056325,
        "meta_mean_motion_dot": 1.681e-05,
        "meta_mean_motion_ddot": 0,
        "tle_line1": "1 34554U 93036UQ  25345.87029390  .00001681  00000+0  56325-3 0  9998",
        "tle_line2": "2 34554  74.0386 300.5920 0022950   3.1494  27.0274 14.37935968877435"
      },
      "geometry": {
        "type": "Point",
        "coordinates": [
          -159.2048334134019,
          -73.90571658343181
        ]
      }
    },
    {
      "type": "Feature",
      "properties": {
        "norad_id": 34556,
        "name": "COSMOS 2251 DEB",
        "group": "cosmos-2251-debris",
        "lat": 39.837191043321,
        "lon": -69.95802345979646,
        "alt_km": 628.903379185369,
        "timestamp": "2025-12-13T05:42:57.966750+00:00",
        "meta_object_name": "COSMOS 2251 DEB",
        "meta_object_id": "1993-036US",
        "meta_epoch": "2025-12-11T15:46:46.515648",
        "meta_mean_motion": 14.77747642,
        "meta_eccentricity": 0.00078788,
        "meta_inclination": 74.0159,
        "meta_ra_of_asc_node": 126.9824,
        "meta_arg_of_pericenter": 187.1045,
        "meta_mean_anomaly": 185.2844,
        "meta_ephemeris_type": 0,
        "meta_classification_type": "U",
        "meta_norad_cat_id": 34556,
        "meta_element_set_no": 999,
        "meta_rev_at_epoch": 88313,
        "meta_bstar": 0.0034463135,
        "meta_mean_motion_dot": 0.00024795,
        "meta_mean_motion_ddot": 0,
        "tle_line1": "1 34556U 93036US  25345.65748282  .00024795  00000+0  34463-2 0  9993",
        "tle_line2": "2 34556  74.0159 126.9824 0007878 187.1045 185.2844 14.77747642883133"
      },
      "geometry": {
        "type": "Point",
        "coordinates": [
          -69.95802345979646,
          39.837191043321
        ]
      }
    },
    {
      "type": "Feature",
      "properties": {
        "norad_id": 34560,
        "name": "COSMOS 2251 DEB",
        "group": "cosmos-2251-debris",
        "lat": 20.589521257283774,
        "lon": 147.34397741069694,
        "alt_km": 663.4709786701205,
        "timestamp": "2025-12-13T05:42:57.966761+00:00",
        "meta_object_name": "COSMOS 2251 DEB",
        "meta_object_id": "1993-036UW",
        "meta_epoch": "2025-12-11T19:56:42.891936",
        "meta_mean_motion": 14.72099094,
        "meta_eccentricity": 0.00146847,
        "meta_inclination": 74.0167,
        "meta_ra_of_asc_node": 143.9021,
        "meta_arg_of_pericenter": 225.3472,
        "meta_mean_anomaly": 261.9903,
        "meta_ephemeris_type": 0,
        "meta_classification_type": "U",
        "meta_norad_cat_id": 34560,
        "meta_element_set_no": 999,
        "meta_rev_at_epoch": 88238,
        "meta_bstar": 0.0034589559,
        "meta_mean_motion_dot": 0.0002184,
        "meta_mean_motion_ddot": 0,
        "tle_line1": "1 34560U 93036UW  25345.83105199  .00021840  00000+0  34590-2 0  9991",
        "tle_line2": "2 34560  74.0167 143.9021 0014684 225.3472 261.9903 14.72099094882387"
      },
      "geometry": {
        "type": "Point",
        "coordinates": [
          147.34397741069694,
          20.589521257283774
        ]
      }
    },
    {
      "type": "Feature",
      "properties": {
        "norad_id": 34563,
        "name": "COSMOS 2251 DEB",
        "group": "cosmos-2251-debris",
        "lat": 70.86904032602285,
        "lon": -32.82155365261175,
        "alt_km": 739.3753962008986,
        "timestamp": "2025-12-13T05:42:57.966771+00:00",
        "meta_object_name": "COSMOS 2251 DEB",
        "meta_object_id": "1993-036UZ",
        "meta_epoch": "2025-12-12T01:44:17.026656",
        "meta_mean_motion": 14.46506918,
        "meta_eccentricity": 0.0013895,
        "meta_inclination": 74.0377,
        "meta_ra_of_asc_node": 204.954,
        "meta_arg_of_pericenter": 298.8498,
        "meta_mean_anomaly": 213.6471,
        "meta_ephemeris_type": 0,
        "meta_classification_type": "U",
        "meta_norad_cat_id": 34563,
        "meta_element_set_no": 999,
        "meta_rev_at_epoch": 88187,
        "meta_bstar": 0.00069451254,
        "meta_mean_motion_dot": 2.477e-05,
        "meta_mean_motion_ddot": 0,
        "tle_line1": "1 34563U 93036UZ  25346.07241929  .00002477  00000+0  69451-3 0  9993",
        "tle_line2": "2 34563  74.0377 204.9540 0013895 298.8498 213.6471 14.46506918881879"
      },
      "geometry": {
        "type": "Point",
        "coordinates": [
          -32.82155365261175,
          70.86904032602285
        ]
      }
    },
    {
      "type": "Feature",
      "properties": {
        "norad_id": 34564,
        "name": "COSMOS 2251 DEB",
        "group": "cosmos-2251-debris",
        "lat": -46.43736049324306,
        "lon": 74.61113320158358,
        "alt_km": 767.6929525050855,
        "timestamp": "2025-12-13T05:42:57.966782+00:00",
        "meta_object_name": "COSMOS 2251 DEB",
        "meta_object_id": "1993-036VA",
        "meta_epoch": "2025-12-12T04:22:21.006912",
        "meta_mean_motion": 14.40688498,
        "meta_eccentricity": 0.00190064,
        "meta_inclination": 74.0325,
        "meta_ra_of_asc_node": 239.0431,
        "meta_arg_of_pericenter": 343.0333,
        "meta_mean_anomaly": 171.374,
        "meta_ephemeris_type": 0,
        "meta_classification_type": "U",
        "meta_norad_cat_id": 34564,
        "meta_element_set_no": 999,
        "meta_rev_at_epoch": 87998,
        "meta_bstar": 0.00038442813,
        "meta_mean_motion_dot": 1.204e-05,
        "meta_mean_motion_ddot": 0,
        "tle_line1": "1 34564U 93036VA  25346.18218758  .00001204  00000+0  38443-3 0  9994",
        "tle_line2": "2 34564  74.0325 239.0431 0019006 343.0333 171.3740 14.40688498879988"
      },
      "geometry": {
        "type": "Point",
        "coordinates": [
          74.61113320158358,
          -46.43736049324306
        ]
      }
    },
    {
      "type": "Feature",
      "properties": {
        "norad_id": 34567,
        "name": "COSMOS 2251 DEB",
        "group": "cosmos-2251-debris",
        "lat": -60.97857334233031,
        "lon": 6.935760184307987,
        "alt_km": 766.9343769267953,
        "timestamp": "2025-12-13T05:42:57.966792+00:00",
        "meta_object_name": "COSMOS 2251 DEB",
        "meta_object_id": "1993-036VD",
        "meta_epoch": "2025-12-11T22:48:25.333344",
        "meta_mean_motion": 14.24015105,
        "meta_eccentricity": 0.0074476,
        "meta_inclination": 74.0399,
        "meta_ra_of_asc_node": 158.2009,
        "meta_arg_of_pericenter": 232.644,
        "meta_mean_anomaly": 252.8964,
        "meta_ephemeris_type": 0,
        "meta_classification_type": "U",
        "meta_norad_cat_id": 34567,
        "meta_element_set_no": 999,
        "meta_rev_at_epoch": 87113,
        "meta_bstar": 0.00033899,
        "meta_mean_motion_dot": 7.75e-06,
        "meta_mean_motion_ddot": 0,
        "tle_line1": "1 34567U 93036VD  25345.95029321  .00000775  00000+0  33899-3 0  9999",
        "tle_line2": "2 34567  74.0399 158.2009 0074476 232.6440 252.8964 14.24015105871132"
      },
      "geometry": {
        "type": "Point",
        "coordinates": [
          6.935760184307987,
          -60.97857334233031
        ]
      }
    },
    {
      "type": "Feature",
      "properties": {
        "norad_id": 34569,
        "name": "COSMOS 2251 DEB",
        "group": "cosmos-2251-debris",
        "lat": 50.59993691784393,
        "lon": -142.30518611653517,
        "alt_km": 704.1653554584291,
        "timestamp": "2025-12-13T05:42:57.966803+00:00",
        "meta_object_name": "COSMOS 2251 DEB",
        "meta_object_id": "1993-036VF",
        "meta_epoch": "2025-12-11T14:51:14.626656",
        "meta_mean_motion": 14.24748288,
        "meta_eccentricity": 0.01572567,
        "meta_inclination": 73.9903,
        "meta_ra_of_asc_node": 200.1629,
        "meta_arg_of_pericenter": 28.8066,
        "meta_mean_anomaly": 1.9109,
        "meta_ephemeris_type": 0,
        "meta_classification_type": "U",
        "meta_norad_cat_id": 34569,
        "meta_element_set_no": 999,
        "meta_rev_at_epoch": 86952,
        "meta_bstar": 0.00071468017,
        "meta_mean_motion_dot": 1.868e-05,
        "meta_mean_motion_ddot": 0,
        "tle_line1": "1 34569U 93036VF  25345.61891929  .00001868  00000+0  71468-3 0  9993",
        "tle_line2": "2 34569  73.9903 200.1629 0157256  28.8066   1.9109 14.24748288869524"
      },
      "geometry": {
        "type": "Point",
        "coordinates": [
          -142.30518611653517,
          50.59993691784393
        ]
      }
    }
  ]
}